0014P         2017 12  2.8099  2.738374  0.356984  159.0135  202.0542   27.9130  20210728   5.5 12.0  14P/Wolf                                                 MPEC 2021-F20
0015P         2021 07 13.4733  0.991989  0.717021  347.8233   13.7141    6.7976  20210728  12.0  4.0  15P/Finlay                                               MPEC 2021-O56
0016P         2021 04 18.1670  1.878090  0.486227  245.1742  138.8702    3.0119  20210728   7.5 10.0  16P/Brooks                                               MPC 92276
0017P         2021 02 19.8255  2.080724  0.427621   24.4704  326.6203   19.0322  20210728  10.0  6.0  17P/Holmes                                               MPEC 2021-O56
0019P         2022 02  1.8079  1.306356  0.637752  351.8934   74.2591   29.3051  20210728   4.5 10.0  19P/Borrelly                                             MPEC 2021-O56
0021P         2018 09 10.7324  1.010331  0.710984  172.8578  195.3490   32.0367  20210728  11.4  4.0  21P/Giacobini-Zinner                                     MPEC 2021-F20
0022P         2022 03 18.1014  1.552558  0.548836  163.0008  120.8365    4.7420  20210728   3.0 10.4  22P/Kopff                                                MPEC 2021-O56
0023P         1989 08  5.5596  0.485336  0.971367  128.8058  312.4164   19.1339  20210728  10.0  6.0  23P/Brorsen-Metcalf                                      MPC 14747
0024P         2017 11 13.3138  1.181902  0.708387   58.2276   78.6432   11.5394  20210728   6.5 14.0  24P/Schaumasse                                           MPC110085
0026P         2023 12 25.6972  1.084057  0.640361    2.1804  211.5403   22.4349  20210728  12.0 16.0  26P/Grigg-Skjellerup                                     MPC 94674
0027P         2011 07 23.1748  0.750823  0.918259  195.9427  250.6055   29.2062  20210728  12.0  8.0  27P/Crommelin                                            MPC 78188
0028P         2021 03 11.8759  1.578262  0.773738  347.4072  346.3324   14.3121  20210728   8.5  6.0  28P/Neujmin                                              MPEC 2021-O56
0029P         2019 03 27.6027  5.769327  0.044650   49.2190  312.3757    9.3668  20210728   4.0  4.0  29P/Schwassmann-Wachmann                                 MPEC 2021-O56
0030P         2024 08 13.5775  1.747721  0.526427    9.7043  118.4196    8.2740  20210728   9.5  6.0  30P/Reinmuth                                             MPC110085
0031P         2019 07  4.7142  3.424250  0.192151   18.1309  114.1129    4.5474  20210728   5.0  8.0  31P/Schwassmann-Wachmann                                 MPEC 2021-N06
0032P         2024 04 21.8738  1.982861  0.559779   54.3050   56.2759    9.8765  20210728   6.5  8.0  32P/Comas Sola                                           MPC 92276
0033P         2024 11 12.5057  2.240101  0.451681   20.5453   66.3222   22.3014  20210728  10.0 12.0  33P/Daniel                                               MPEC 2013-O31
0035P         2092 01  2.197   0.74657   0.97386    28.978   356.642    65.130   20210728   9.0  4.0  35P/Herschel-Rigollet                                     15,  452
0036P         2020 06  1.0146  3.021961  0.268894  200.8557  181.8514    9.9517  20210728  14.2  4.0  36P/Whipple                                              MPEC 2021-F20
0037P         2024 10 10.3709  1.613166  0.533805  330.1181  314.5595    8.9575  20210728  13.8  4.0  37P/Forbes                                               MPEC 2021-F20
0038P         2018 11 10.9922  1.584959  0.858998  359.5094   77.9662   18.3623  20210728  11.7  4.0  38P/Stephan-Oterma                                       MPC xxxxx
0039P         2023 05 24.4374  5.731296  0.223812   96.0796  299.1738    1.5584  20210728   7.0  6.0  39P/Oterma                                               MPEC 2020-W26
0040P         2025 11 18.0202  1.834162  0.629641   47.4236  133.7779   11.4692  20210728   5.5 12.0  40P/Vaisala                                              MPC100283
0041P         2022 09 13.4209  1.049644  0.659996   62.2437  140.9879    9.2209  20210728  10.0 16.0  41P/Tuttle-Giacobini-Kresak                              MPC105240
0042P         2026 01 13.0879  2.020666  0.585334  147.2189  150.1773    3.9910  20210728  13.0  6.0  42P/Neujmin                                              MPC 94283
0043P         2025 08  6.6203  2.433435  0.436003  224.1250  244.1634    9.3411  20210728   8.0  6.0  43P/Wolf-Harrington                                      MPC102956
0044P         2022 04 23.4459  2.112440  0.427417   58.1328  286.4807    5.8983  20210728   8.3  6.0  44P/Reinmuth                                             MPEC 2021-O56
0045P         2022 04 25.5525  0.556992  0.817496  327.9183   87.7065    4.3233  20210728  13.5  8.0  45P/Honda-Mrkos-Pajdusakova                              MPC103849
0046P         2018 12 12.3735  1.056542  0.658280  356.3421   82.1572   11.7440  20210728  14.0  6.0  46P/Wirtanen                                             MPEC 2021-O56
0047P         2017 06 11.6347  2.810952  0.318385  357.6356  356.9207   13.0395  20210728  12.2  4.0  47P/Ashbrook-Jackson                                     MPEC 2021-F20
0048P         2018 08 12.8663  2.004491  0.427429  216.6590  110.1239   12.2063  20210728  12.4  4.0  48P/Johnson                                              MPEC 2021-F20
0049P         2018 07 14.2540  1.434296  0.598225  332.9462  118.7976   19.0456  20210728  13.4  4.0  49P/Arend-Rigaux                                         MPEC 2021-F20
0050P         2024 05 13.3713  1.925821  0.529000   49.3109  355.1741   19.1002  20210728   9.5  6.0  50P/Arend                                                MPEC 2015-S97
0051P      a  2022 10  3.9590  1.693058  0.543428  269.2493   83.6776    5.4257  20210728  10.0  8.0  51P-A/Harrington                                         NK   3014
0051P      d  2022 10  1.8062  1.692864  0.543358  269.2880   83.6624    5.4264  20210728  16.0  8.0  51P-D/Harrington                                         NK   3013
0052P         2021 10  5.1955  1.777215  0.540034  139.5962  336.8383   10.2317  20210728  13.5  6.0  52P/Harrington-Abell                                     MPC 88330
0053P         2016 04 30.8946  2.432616  0.551802  134.4808  148.8124    6.6094  20210728   7.7  4.8  53P/Van Biesbroeck                                       MPC100283
0054P         2024 09  3.6760  2.176215  0.426027    1.7831  358.8156    6.0642  20210728   9.0  4.0  54P/de Vico-Swift-NEAT                                   MPC 89011
0055P         2031 05 18.2562  0.971919  0.906136  172.5026  235.4073  162.4329  20210728   9.0  4.0  55P/Tempel-Tuttle                                        MPC 31070
0056P         2016 07 19.5683  2.496240  0.507578   43.9809  345.9944    8.1610  20210728   8.5  6.0  56P/Slaughter-Burnham                                    MPC101100
0057P         2021 10 17.4502  1.720113  0.500880  115.2597  188.7787    2.8509  20210728  12.5  6.0  57P/du Toit-Neujmin-Delporte                             MPEC 2021-J28
0058P         2020 05 27.4982  1.377625  0.662769  200.4829  159.0759   13.1081  20210728  15.5  6.0  58P/Jackson-Neujmin                                      MPEC 2021-O56
0059P         2018 09 16.4386  2.354930  0.475156  127.5332  312.8331    9.3413  20210728   7.0  6.0  59P/Kearns-Kwee                                          MPEC 2021-F20
0060P         2018 12  9.4316  1.639450  0.534697  216.9622  267.5387    3.5886  20210728  11.5  6.0  60P/Tsuchinshan                                          MPEC 2021-F20
0061P         2022 10 24.2584  2.124096  0.423934  221.8210  162.9758    5.9988  20210728   6.0 10.0  61P/Shajn-Schaldach                                      MPEC 2015-Q71
0062P         2023 12 23.5441  1.245175  0.628859   47.0629   69.3424    4.7560  20210728   8.0 10.0  62P/Tsuchinshan                                          MPC109147
0063P         2026 07 12.9939  1.968967  0.648832  169.0930  358.0185   19.7283  20210728  10.5  6.0  63P/Wild                                                 MPC 84320
0064P         2018 11  4.2640  1.389459  0.688011   97.0708  299.9924    8.9499  20210728  13.4  4.0  64P/Swift-Gehrels                                        MPEC 2021-F20
0065P         2017 10 17.6920  2.917043  0.249367  213.8829   62.0165    9.1790  20210728  11.2  4.0  65P/Gunn                                                 MPEC 2021-F20
0066P         2018 05 19.0695  1.294179  0.786684  257.3908   21.8251   18.6482  20210728  15.0  4.0  66P/duToit                                               MPEC 2021-F20
0067P         2021 11  2.0561  1.210642  0.649777   22.1278   36.3334    3.8714  20210728  11.0  4.0  67P/Churyumov-Gerasimenko                                MPEC 2021-O56
0068P         2019 11  9.1496  1.795061  0.637648  153.1453  175.0596   11.1104  20210728  10.0  4.0  68P/Klemola                                              MPC 75716
0069P         2019 03 18.0927  2.281261  0.413132  343.4397  104.8246   22.0342  20210728   9.5 12.0  69P/Taylor                                               MPC114607
0070P         2021 11  3.1362  2.008983  0.453655    1.8350  119.2689    6.5982  20210728  11.0  6.0  70P/Kojima                                               MPEC 2021-BE3
0071P         2023 01 21.5533  1.588217  0.493925  209.0539   59.4140    9.4378  20210728   9.8  6.0  71P/Clark                                                MPC107051
0072P         2023 06 15.9697  0.782605  0.818446  346.6911   26.6924   10.9426  20210728  17.5 10.0  72P/Denning-Fujikawa                                     MPC 89011
0073P         2022 08 25.6561  0.972696  0.685501  199.4709   69.6270   11.2287  20210728  11.5  6.0  73P/Schwassmann-Wachmann                                 MPC106348
0073P      t  2022 08 27.1558  0.972561  0.685703  199.4523   69.6296   11.2308  20210728  11.5  6.0  73P-T/Schwassmann-Wachmann                               MPC106348
